{"type": "FeatureCollection", "features": [ {"type": "Feature", "properties": {"norad_id": 58655, "name": "BEIDOU-3 M26 (C48)", "group": "beidou", "lat": 33.35494096360939, "lon": -137.81838165718528, "alt_km": 21527.36591295143, "timestamp": "2025-12-01T03:58:49.202855+00:00", "meta": {"OBJECT_NAME": "BEIDOU-3 M26 (C48)", "OBJECT_ID": "2023-207B", "EPOCH": "2025-11-29T21:15:29.587968", "MEAN_MOTION": 1.86231123, "ECCENTRICITY": 0.00033719, "INCLINATION": 55.5753, "RA_OF_ASC_NODE": 69.0231, "ARG_OF_PERICENTER": 249.3814, "MEAN_ANOMALY": 110.59, "EPHEMERIS_TYPE": 0, "CLASSIFICATION_TYPE": "U", "NORAD_CAT_ID": 58655, "ELEMENT_SET_NO": 999, "REV_AT_EPOCH": 1311, "BSTAR": 0, "MEAN_MOTION_DOT": -3.1e-07, "MEAN_MOTION_DDOT": 0, "GROUP": "beidou"}, "tle": {"line1": "1 58655U 23207B   25333.88575912 -.00000031  00000+0  00000+0 0  9997", "line2": "2 58655  55.5753  69.0231 0003371 249.3814 110.5900  1.86231123 13116"}}, "geometry": {"type": "Point", "coordinates": [-137.81838165718528, 33.35494096360939]}}, {"type": "Feature", "properties": {"norad_id": 61186, "name": "BEIDOU-3 M25 (C47)", "group": "beidou", "lat": -52.02829342105292, "lon": -165.51207123960305, "alt_km": 21521.591380545655, "timestamp": "2025-12-01T03:58:49.203037+00:00", "meta": {"OBJECT_NAME": "BEIDOU-3 M25 (C47)", "OBJECT_ID": "2024-168B", "EPOCH": "2025-11-30T18:47:42.055296", "MEAN_MOTION": 1.86229829, "ECCENTRICITY": 0.0005568, "INCLINATION": 54.6532, "RA_OF_ASC_NODE": 309.1351, "ARG_OF_PERICENTER": 293.3015, "MEAN_ANOMALY": 65.2557, "EPHEMERIS_TYPE": 0, "CLASSIFICATION_TYPE": "U", "NORAD_CAT_ID": 61186, "ELEMENT_SET_NO": 999, "REV_AT_EPOCH": 808, "BSTAR": 0, "MEAN_MOTION_DOT": -5.4e-07, "MEAN_MOTION_DDOT": 0, "GROUP": "beidou"}, "tle": {"line1": "1 61186U 24168B   25334.78312564 -.00000054  00000+0  00000+0 0  9994", "line2": "2 61186  54.6532 309.1351 0005568 293.3015  65.2557  1.86229829  8081"}}, "geometry": {"type": "Point", "coordinates": [-165.51207123960305, -52.02829342105292]}}, {"type": "Feature", "properties": {"norad_id": 61187, "name": "BEIDOU-3 M27 (C49)", "group": "beidou", "lat": 24.15676752046938, "lon": -32.35042897226484, "alt_km": 21522.36109385994, "timestamp": "2025-12-01T03:58:49.203050+00:00", "meta": {"OBJECT_NAME": "BEIDOU-3 M27 (C49)", "OBJECT_ID": "2024-168C", "EPOCH": "2025-11-30T14:00:13.607712", "MEAN_MOTION": 1.86229977, "ECCENTRICITY": 0.0002285, "INCLINATION": 54.6489, "RA_OF_ASC_NODE": 309.1257, "ARG_OF_PERICENTER": 326.9603, "MEAN_ANOMALY": 32.6883, "EPHEMERIS_TYPE": 0, "CLASSIFICATION_TYPE": "U", "NORAD_CAT_ID": 61187, "ELEMENT_SET_NO": 999, "REV_AT_EPOCH": 555, "BSTAR": 0, "MEAN_MOTION_DOT": -5.3e-07, "MEAN_MOTION_DDOT": 0, "GROUP": "beidou"}, "tle": {"line1": "1 61187U 24168C   25334.58349083 -.00000053  00000+0  00000+0 0  9998", "line2": "2 61187  54.6489 309.1257 0002285 326.9603  32.6883  1.86229977  5550"}}, "geometry": {"type": "Point", "coordinates": [-32.35042897226484, 24.15676752046938]}}]}